[{"OBJECT_NAME":"SBSS (USA 216)","OBJECT_ID":"2010-048A","EPOCH":"2026-03-09T21:16:11.917056","MEAN_MOTION":15.1572421,"ECCENTRICITY":0.0082264,"INCLINATION":97.7474,"RA_OF_ASC_NODE":312.3885,"ARG_OF_PERICENTER":184.8326,"MEAN_ANOMALY":306.5835,"EPHEMERIS_TYPE":0,"CLASSIFICATION_TYPE":"U","NORAD_CAT_ID":37168,"ELEMENT_SET_NO":999,"REV_AT_EPOCH":83742,"BSTAR":0.00024191,"MEAN_MOTION_DOT":4.946e-5,"MEAN_MOTION_DDOT":0},{"OBJECT_NAME":"STARLINK-6344","OBJECT_ID":"2023-065T","EPOCH":"2026-03-08T09:59:00.813696","MEAN_MOTION":15.02537575,"ECCENTRICITY":0.0001736,"INCLINATION":43.0028,"RA_OF_ASC_NODE":217.2146,"ARG_OF_PERICENTER":270.1952,"MEAN_ANOMALY":89.8691,"EPHEMERIS_TYPE":0,"CLASSIFICATION_TYPE":"U","NORAD_CAT_ID":56520,"ELEMENT_SET_NO":999,"REV_AT_EPOCH":15643,"BSTAR":0.00019132915,"MEAN_MOTION_DOT":2.382e-5,"MEAN_MOTION_DDOT":0}]
